start=new Date('2023-06-04T00:00:00.000Z').valueOf();
sats=[{"PERIAPSIS":"546.386","EPOCH":"2023-06-03T16:36:03.530592","TLE_LINE2":"2 47672  53.0541 255.6740 0001072  99.3728 260.7382 15.06427878128156","TLE_LINE1":"1 47672U 21012BE  23154.69170753  .00022417  00000-0  15179-2 0  9996","INCLINATION":"53.0541","ECCENTRICITY":"0.00010720","ELEMENT_SET_NO":"999","COUNTRY_CODE":"US","TIME_SYSTEM":"UTC","LAUNCH_DATE":"2021-02-16","MEAN_MOTION_DDOT":"0.0000000000000","CENTER_NAME":"EARTH","MEAN_MOTION_DOT":"0.00022417","SITE":"AFETR","REV_AT_EPOCH":"12815","RA_OF_ASC_NODE":"255.6740","OBJECT_NAME":"STARLINK-2065","SEMIMAJOR_AXIS":"6925.263","DECAY_DATE":null,"MEAN_MOTION":"15.06427878","PERIOD":"95.590","REF_FRAME":"TEME","GP_ID":"233141772","FILE":"3924324","OBJECT_TYPE":"PAYLOAD","APOAPSIS":"547.871","MEAN_ANOMALY":"260.7382","NORAD_CAT_ID":"47672","EPHEMERIS_TYPE":"0","BSTAR":"0.00151790000000","OBJECT_ID":"2021-012BE","CLASSIFICATION_TYPE":"U","ARG_OF_PERICENTER":"99.3728","RCS_SIZE":"LARGE","MEAN_ELEMENT_THEORY":"SGP4"},{"ARG_OF_PERICENTER":"69.5294","CLASSIFICATION_TYPE":"U","MEAN_ELEMENT_THEORY":"SGP4","RCS_SIZE":"LARGE","OBJECT_TYPE":"PAYLOAD","FILE":"3924324","DECAY_DATE":null,"MEAN_MOTION":"15.06400308","REF_FRAME":"TEME","PERIOD":"95.592","GP_ID":"233141522","MEAN_ANOMALY":"290.5764","NORAD_CAT_ID":"47673","EPHEMERIS_TYPE":"0","BSTAR":"0.00096342000000","OBJECT_ID":"2021-012BF","APOAPSIS":"547.654","RA_OF_ASC_NODE":"266.0674","OBJECT_NAME":"STARLINK-2066","SEMIMAJOR_AXIS":"6925.348","INCLINATION":"53.0543","ECCENTRICITY":"0.00006370","ELEMENT_SET_NO":"999","COUNTRY_CODE":"US","EPOCH":"2023-06-03T14:27:20.819520","PERIAPSIS":"546.771","TLE_LINE1":"1 47673U 21012BF  23154.60232430  .00014098  00000-0  96342-3 0  9997","TLE_LINE2":"2 47673  53.0543 266.0674 0000637  69.5294 290.5764 15.06400308128013","MEAN_MOTION_DOT":"0.00014098","REV_AT_EPOCH":"12801","SITE":"AFETR","LAUNCH_DATE":"2021-02-16","TIME_SYSTEM":"UTC","MEAN_MOTION_DDOT":"0.0000000000000","CENTER_NAME":"EARTH"},{"EPHEMERIS_TYPE":"0","OBJECT_ID":"2021-012BG","BSTAR":"0.00136440000000","MEAN_ANOMALY":"261.0499","NORAD_CAT_ID":"47674","APOAPSIS":"547.771","OBJECT_TYPE":"PAYLOAD","FILE":"3924324","GP_ID":"233142774","DECAY_DATE":null,"MEAN_MOTION":"15.06411686","PERIOD":"95.591","REF_FRAME":"TEME","MEAN_ELEMENT_THEORY":"SGP4","RCS_SIZE":"LARGE","ARG_OF_PERICENTER":"99.0587","CLASSIFICATION_TYPE":"U","REV_AT_EPOCH":"12802","SITE":"AFETR","MEAN_MOTION_DOT":"0.00020106","CENTER_NAME":"EARTH","MEAN_MOTION_DDOT":"0.0000000000000","LAUNCH_DATE":"2021-02-16","TIME_SYSTEM":"UTC","ELEMENT_SET_NO":"999","COUNTRY_CODE":"US","INCLINATION":"53.0542","ECCENTRICITY":"0.00008560","EPOCH":"2023-06-03T14:47:12.760224","PERIAPSIS":"546.585","TLE_LINE1":"1 47674U 21012BG  23154.61611991  .00020106  00000-0  13644-2 0  9992","TLE_LINE2":"2 47674  53.0542 266.0069 0000856  99.0587 261.0499 15.06411686128027","SEMIMAJOR_AXIS":"6925.313","RA_OF_ASC_NODE":"266.0069","OBJECT_NAME":"STARLINK-2067"},{"MEAN_ELEMENT_THEORY":"SGP4","RCS_SIZE":"LARGE","ARG_OF_PERICENTER":"104.0261","CLASSIFICATION_TYPE":"U","OBJECT_ID":"2021-012BH","BSTAR":"0.00133170000000","EPHEMERIS_TYPE":"0","NORAD_CAT_ID":"47675","MEAN_ANOMALY":"256.0822","APOAPSIS":"547.810","FILE":"3924076","OBJECT_TYPE":"PAYLOAD","GP_ID":"233109716","REF_FRAME":"TEME","PERIOD":"95.592","MEAN_MOTION":"15.06398184","DECAY_DATE":null,"SEMIMAJOR_AXIS":"6925.354","OBJECT_NAME":"STARLINK-2078","RA_OF_ASC_NODE":"266.3430","REV_AT_EPOCH":"12801","SITE":"AFETR","MEAN_MOTION_DOT":"0.00019609","MEAN_MOTION_DDOT":"0.0000000000000","CENTER_NAME":"EARTH","TIME_SYSTEM":"UTC","LAUNCH_DATE":"2021-02-16","COUNTRY_CODE":"US","ELEMENT_SET_NO":"999","ECCENTRICITY":"0.00008530","INCLINATION":"53.0544","TLE_LINE1":"1 47675U 21012BH  23154.54335298  .00019609  00000-0  13317-2 0  9991","TLE_LINE2":"2 47675  53.0544 266.3430 0000853 104.0261 256.0822 15.06398184128018","EPOCH":"2023-06-03T13:02:25.697472","PERIAPSIS":"546.628"},{"REV_AT_EPOCH":"12901","SITE":"AFETR","MEAN_MOTION_DOT":"-0.00000160","CENTER_NAME":"EARTH","MEAN_MOTION_DDOT":"0.0000000000000","LAUNCH_DATE":"2021-02-16","TIME_SYSTEM":"UTC","COUNTRY_CODE":"US","ELEMENT_SET_NO":"999","ECCENTRICITY":"0.00008620","INCLINATION":"53.0532","TLE_LINE1":"1 47676U 21012BJ  23154.40604805 -.00000160  00000-0  81678-5 0  9991","TLE_LINE2":"2 47676  53.0532 156.9585 0000862  89.1361 270.9727 15.06394406129018","EPOCH":"2023-06-03T09:44:42.551520","PERIAPSIS":"546.634","SEMIMAJOR_AXIS":"6925.366","OBJECT_NAME":"STARLINK-2083","RA_OF_ASC_NODE":"156.9585","BSTAR":"0.00000816780000","OBJECT_ID":"2021-012BJ","EPHEMERIS_TYPE":"0","NORAD_CAT_ID":"47676","MEAN_ANOMALY":"270.9727","APOAPSIS":"547.828","OBJECT_TYPE":"PAYLOAD","FILE":"3924156","GP_ID":"233117221","REF_FRAME":"TEME","PERIOD":"95.592","DECAY_DATE":null,"MEAN_MOTION":"15.06394406","MEAN_ELEMENT_THEORY":"SGP4","RCS_SIZE":"LARGE","ARG_OF_PERICENTER":"89.1361","CLASSIFICATION_TYPE":"U"},{"MEAN_MOTION_DOT":"0.00021576","REV_AT_EPOCH":"12775","SITE":"AFETR","TIME_SYSTEM":"UTC","LAUNCH_DATE":"2021-02-16","MEAN_MOTION_DDOT":"0.0000000000000","CENTER_NAME":"EARTH","ECCENTRICITY":"0.00010230","INCLINATION":"53.0547","COUNTRY_CODE":"US","ELEMENT_SET_NO":"999","TLE_LINE2":"2 47677  53.0547 285.4996 0001023  99.5375 260.5730 15.06408252127752","TLE_LINE1":"1 47677U 21012BK  23154.72854897  .00021576  00000-0  14626-2 0  9994","EPOCH":"2023-06-03T17:29:06.631008","PERIAPSIS":"546.480","OBJECT_NAME":"STARLINK-2090","RA_OF_ASC_NODE":"285.4996","SEMIMAJOR_AXIS":"6925.323","NORAD_CAT_ID":"47677","MEAN_ANOMALY":"260.5730","BSTAR":"0.00146260000000","OBJECT_ID":"2021-012BK","EPHEMERIS_TYPE":"0","APOAPSIS":"547.897","FILE":"3924324","OBJECT_TYPE":"PAYLOAD","PERIOD":"95.592","REF_FRAME":"TEME","DECAY_DATE":null,"MEAN_MOTION":"15.06408252","GP_ID":"233142023","MEAN_ELEMENT_THEORY":"SGP4","RCS_SIZE":"LARGE","ARG_OF_PERICENTER":"99.5375","CLASSIFICATION_TYPE":"U"},{"CLASSIFICATION_TYPE":"U","ARG_OF_PERICENTER":"85.2196","RCS_SIZE":"LARGE","MEAN_ELEMENT_THEORY":"SGP4","GP_ID":"233142274","PERIOD":"95.592","REF_FRAME":"TEME","DECAY_DATE":null,"MEAN_MOTION":"15.06408657","FILE":"3924324","OBJECT_TYPE":"PAYLOAD","APOAPSIS":"547.840","OBJECT_ID":"2021-012BM","BSTAR":"0.00008215400000","EPHEMERIS_TYPE":"0","NORAD_CAT_ID":"47679","MEAN_ANOMALY":"274.8901","SEMIMAJOR_AXIS":"6925.322","OBJECT_NAME":"STARLINK-2095","RA_OF_ASC_NODE":"285.3745","TLE_LINE1":"1 47679U 21012BM  23154.75801638  .00000943  00000-0  82154-4 0  9992","TLE_LINE2":"2 47679  53.0535 285.3745 0000943  85.2196 274.8901 15.06408657127774","PERIAPSIS":"546.534","EPOCH":"2023-06-03T18:11:32.615232","COUNTRY_CODE":"US","ELEMENT_SET_NO":"999","ECCENTRICITY":"0.00009430","INCLINATION":"53.0535","MEAN_MOTION_DDOT":"0.0000000000000","CENTER_NAME":"EARTH","LAUNCH_DATE":"2021-02-16","TIME_SYSTEM":"UTC","REV_AT_EPOCH":"12777","SITE":"AFETR","MEAN_MOTION_DOT":"0.00000943"},{"OBJECT_NAME":"STARLINK-2068","RA_OF_ASC_NODE":"49.8337","SEMIMAJOR_AXIS":"6925.339","MEAN_MOTION_DOT":"0.00020656","SITE":"AFETR","REV_AT_EPOCH":"12579","TIME_SYSTEM":"UTC","LAUNCH_DATE":"2021-03-04","CENTER_NAME":"EARTH","MEAN_MOTION_DDOT":"0.0000000000000","ECCENTRICITY":"0.00012950","INCLINATION":"53.0554","COUNTRY_CODE":"US","ELEMENT_SET_NO":"999","TLE_LINE2":"2 47722  53.0554  49.8337 0001295  69.0339 291.0788 15.06403080125793","TLE_LINE1":"1 47722U 21017A   23154.93364035  .00020656  00000-0  14014-2 0  9992","PERIAPSIS":"546.307","EPOCH":"2023-06-03T22:24:26.526240","MEAN_ELEMENT_THEORY":"SGP4","RCS_SIZE":"LARGE","ARG_OF_PERICENTER":"69.0339","CLASSIFICATION_TYPE":"U","NORAD_CAT_ID":"47722","MEAN_ANOMALY":"291.0788","OBJECT_ID":"2021-017A","BSTAR":"0.00140140000000","EPHEMERIS_TYPE":"0","APOAPSIS":"548.101","OBJECT_TYPE":"PAYLOAD","FILE":"3924324","PERIOD":"95.592","REF_FRAME":"TEME","MEAN_MOTION":"15.06403080","DECAY_DATE":null,"GP_ID":"233143028"},{"SEMIMAJOR_AXIS":"6925.224","OBJECT_NAME":"STARLINK-2107","RA_OF_ASC_NODE":"345.1473","MEAN_MOTION_DDOT":"0.0000000000000","CENTER_NAME":"EARTH","TIME_SYSTEM":"UTC","LAUNCH_DATE":"2021-03-04","SITE":"AFETR","REV_AT_EPOCH":"12665","MEAN_MOTION_DOT":"0.00018472","TLE_LINE2":"2 47723  53.0551 345.1473 0001249  72.8435 287.2690 15.06440507126652","TLE_LINE1":"1 47723U 21017B   23154.80871649  .00018472  00000-0  12544-2 0  9992","PERIAPSIS":"546.224","EPOCH":"2023-06-03T19:24:33.104736","COUNTRY_CODE":"US","ELEMENT_SET_NO":"999","ECCENTRICITY":"0.00012490","INCLINATION":"53.0551","RCS_SIZE":"LARGE","MEAN_ELEMENT_THEORY":"SGP4","CLASSIFICATION_TYPE":"U","ARG_OF_PERICENTER":"72.8435","APOAPSIS":"547.954","OBJECT_ID":"2021-017B","BSTAR":"0.00125440000000","EPHEMERIS_TYPE":"0","NORAD_CAT_ID":"47723","MEAN_ANOMALY":"287.2690","GP_ID":"233141776","PERIOD":"95.590","REF_FRAME":"TEME","MEAN_MOTION":"15.06440507","DECAY_DATE":null,"OBJECT_TYPE":"PAYLOAD","FILE":"3924324"},{"CLASSIFICATION_TYPE":"U","ARG_OF_PERICENTER":"65.7099","RCS_SIZE":"LARGE","MEAN_ELEMENT_THEORY":"SGP4","DECAY_DATE":null,"MEAN_MOTION":"15.06400437","REF_FRAME":"TEME","PERIOD":"95.592","GP_ID":"233141526","FILE":"3924324","OBJECT_TYPE":"PAYLOAD","APOAPSIS":"547.694","MEAN_ANOMALY":"294.3963","NORAD_CAT_ID":"47724","EPHEMERIS_TYPE":"0","BSTAR":"0.00124770000000","OBJECT_ID":"2021-017C","RA_OF_ASC_NODE":"344.9834","OBJECT_NAME":"STARLINK-2116","SEMIMAJOR_AXIS":"6925.347","EPOCH":"2023-06-03T20:17:40.363584","PERIAPSIS":"546.730","TLE_LINE1":"1 47724U 21017C   23154.84560606  .00018352  00000-0  12477-2 0  9997","TLE_LINE2":"2 47724  53.0539 344.9834 0000696  65.7099 294.3963 15.06400437126626","INCLINATION":"53.0539","ECCENTRICITY":"0.00006960","ELEMENT_SET_NO":"999","COUNTRY_CODE":"US","TIME_SYSTEM":"UTC","LAUNCH_DATE":"2021-03-04","MEAN_MOTION_DDOT":"0.0000000000000","CENTER_NAME":"EARTH","MEAN_MOTION_DOT":"0.00018352","REV_AT_EPOCH":"12662","SITE":"AFETR"}];
